METHANESAT              
1 59101U 24043D   25194.81426192  .00002232  00000+0  20675-3 0  9994
2 59101  97.8037 320.7558 0011969  64.2296 296.0159 14.95475162 74037
GOSAT-GW (IBUKI GW)     
1 64694U 25141A   25194.87341966  .00000714  00000+0  13597-3 0  9996
2 64694  98.0257 133.3228 0004215 110.3239 249.8419 14.66988462  2222
GHGSAT-C1               
1 46278U 20061G   25195.18796585  .00011707  00000+0  20026-3 0  9995
2 46278  97.2497 269.0801 0002140 165.8998 194.2314 15.51416213270772
GHGSAT-C2               
1 47509U 21006DA  25195.20687087  .00004123  00000+0  13327-3 0  9992
2 47509  97.2658 243.3667 0004325 313.7011  46.3872 15.32634784247999
GHGSAT-C3               
1 52737U 22057F   25195.19698205  .00007599  00000+0  27579-3 0  9994
2 52737  97.6169 325.6704 0005690 227.8858 132.1898 15.28605523173809
GHGSAT-C4               
1 52746U 22057Q   25195.14977273  .00007652  00000+0  27751-3 0  9996
2 52746  97.6098 324.7882 0006229 212.1646 147.9214 15.28622965173803
GHGSAT-C5               
1 52744U 22057N   25195.16597131  .00004342  00000+0  15877-3 0  9996
2 52744  97.6254 326.8210 0006762 225.3642 134.7046 15.28621950173807
GHGSAT-C6               
1 56204U 23054AC  25195.18082190  .00007061  00000+0  16645-3 0  9990
2 56204  97.3286  96.3777 0009100 178.5364 181.5912 15.42186202126183
GHGSAT-C7               
1 56209U 23054AH  25195.18713325  .00005960  00000+0  14441-3 0  9994
2 56209  97.3248  95.9521 0009293 172.2852 187.8540 15.41424090126189
GHGSAT-C8               
1 56186U 23054J   25195.22072037  .00007150  00000+0  16852-3 0  9992
2 56186  97.3256  95.9071 0005725 192.8276 167.2827 15.42211607126174
SENTINEL-5P             
1 42969U 17064A   25195.08226582  .00000031  00000+0  35681-4 0  9993
2 42969  98.7585 135.1953 0001296  89.8213 270.3112 14.19531958401591
ENMAP                   
1 52159U 22033C   25194.91909579  .00000290  00000+0  50512-4 0  9999
2 52159  97.9788 277.0280 0001417  95.2838 264.8532 14.75004565176793
PRISMA                  
1 44072U 19015A   25195.18973681  .00000576  00000+0  76122-4 0  9997
2 44072  97.8747 269.7991 0001519  90.9188 269.2200 14.83670910341935
SENTINEL-2A             
1 40697U 15028A   25195.17277244  .00000083  00000+0  48492-4 0  9999
2 40697  98.5688 269.8735 0001196  93.4458 266.6862 14.30816765525393
SENTINEL-2B             
1 42063U 17013A   25195.16559366  .00000081  00000+0  47410-4 0  9998
2 42063  98.5691 269.8081 0001217 100.0717 260.0604 14.30818658436315
SENTINEL-2C             
1 60989U 24157A   25195.20079078  .00000074  00000+0  45028-4 0  9999
2 60989  98.5679 269.9182 0001185  96.9643 263.1675 14.30817319 44653
LANDSAT 8               
1 39084U 13008A   25195.17108323  .00000221  00000+0  59204-4 0  9991
2 39084  98.2246 265.3179 0001373  88.5534 271.5821 14.57101083660498
LANDSAT 9               
1 49260U 21088A   25195.20538819  .00000275  00000+0  71078-4 0  9998
2 49260  98.2266 265.3495 0001541  88.8168 271.3206 14.57098324201771
TANAGER-1               
1 60507U 24149AR  25194.16992841  .00020358  00000+0  45139-3 0  9991
2 60507  97.4038 278.7896 0011703 256.3370 103.6575 15.43707166 50738
